NORAD_CAT_ID,OBJECT_NAME,OBJECT_TYPE,EPOCH,MEAN_MOTION,ECCENTRICITY,INCLINATION,RA_OF_ASC_NODE,ARG_OF_PERICENTER,MEAN_ANOMALY,BSTAR,MEAN_MOTION_DOT,MEAN_MOTION_DDOT,TLE_LINE0,TLE_LINE1,TLE_LINE2,SEMIMAJOR_AXIS,PERIOD,APOGEE,PERIGEE,DECAYED
52689.0,STARLINK-4078,PAYLOAD,2022-06-13 22:00:00,15.73208992,0.0002403,53.2152,166.7439,21.332,134.9467,-0.00011771,-0.00017117,0.0,0 STARLINK-4078,1 52689U 22053AK  22164.91667824 -.00017117  00000-0 -11771-3 0  9999,2 52689  53.2152 166.7439 0002403  21.3320 134.9467 15.73208992  4482,6727.87,91.533,351.351,348.11800000000005,0.0
52689.0,STARLINK-4078,PAYLOAD,2022-06-14 14:00:01,15.73204447,0.000259,53.2152,163.4466,14.878,319.2252,-0.00051823,-0.00072754,0.0,0 STARLINK-4078,1 52689U 22053AK  22165.58334491 -.00072754  00000-0 -51823-3 0  9994,2 52689  53.2152 163.4466 0002590  14.8780 319.2252 15.73204447  1309,6727.882,91.533,351.49,348.005,0.0
52689.0,STARLINK-4078,PAYLOAD,2022-06-14 22:00:00,15.73149816,0.0002384,53.2154,161.7955,17.6328,45.3741,0.0004283,0.00059793,0.0,0 STARLINK-4078,1 52689U 22053AK  22165.91667824  .00059793  00000-0  42830-3 0  9994,2 52689  53.2154 161.7955 0002384  17.6328  45.3741 15.73149816  1303,6728.038000000001,91.536,351.50699999999995,348.2990000000001,0.0
52689.0,STARLINK-4078,PAYLOAD,2022-06-15 06:00:00,15.73178529,0.0002658,53.2155,160.1483,19.7467,132.1678,-0.0002475,-0.00035186,0.0,0 STARLINK-4078,1 52689U 22053AK  22166.25001157 -.00035186  00000-0 -24750-3 0  9996,2 52689  53.2155 160.1483 0002658  19.7467 132.1678 15.73178529  4696,6727.956,91.534,351.61,348.033,0.0
52689.0,STARLINK-4078,PAYLOAD,2022-06-15 14:00:01,15.73184427,0.0002634999999999,53.2151,158.4984,21.2062,219.5884,0.00010282,0.00013824,0.0,0 STARLINK-4078,1 52689U 22053AK  22166.58334491  .00013824  00000-0  10282-3 0  9990,2 52689  53.2151 158.4984 0002635  21.2062 219.5884 15.73184427  4752,6727.94,91.534,351.577,348.032,0.0
52689.0,STARLINK-4078,PAYLOAD,2022-06-15 22:00:00,15.73189643,0.0002422,53.2156,156.8472,24.4245,305.2962,0.00067956,0.0009581,0.0,0 STARLINK-4078,1 52689U 22053AK  22166.91667824  .00095810  00000-0  67956-3 0  9991,2 52689  53.2156 156.8472 0002422  24.4245 305.2962 15.73189643  1306,6727.925,91.534,351.4190000000001,348.16,0.0
52689.0,STARLINK-4078,PAYLOAD,2022-06-16 02:00:01,15.73270661,0.0002445,53.216,156.0234,24.4831,169.7077,-9.5761e-05,-0.00014082,0.0,0 STARLINK-4078,1 52689U 22053AK  22167.08334491 -.00014082  00000-0 -95761-4 0  9991,2 52689  53.2160 156.0234 0002445  24.4831 169.7077 15.73270661  1306,6727.694,91.529,351.204,347.914,0.0
52689.0,STARLINK-4078,PAYLOAD,2022-06-19 14:00:01,15.73008374,0.00026,53.217,138.7051,31.0275,197.057,0.001819,0.00260609,0.0,0 STARLINK-4078,1 52689U 22053AK  22170.58334491  .00260609  00000-0  18190-2 0  9995,2 52689  53.2170 138.7051 0002600  31.0275 197.0570 15.73008374  1302,6728.441999999999,91.544,352.056,348.557,0.0
52689.0,STARLINK-4078,PAYLOAD,2022-06-19 22:00:00,15.73229854,0.0002248,53.2159,137.0541,30.0477,286.9575,-0.00017682,-0.00025397,0.0,0 STARLINK-4078,1 52689U 22053AK  22170.91667824 -.00025397  00000-0 -17682-3 0  9992,2 52689  53.2159 137.0541 0002248  30.0477 286.9575 15.73229854  1307,6727.81,91.531,351.18699999999984,348.163,0.0
52689.0,STARLINK-4078,PAYLOAD,2022-06-20 14:00:01,15.73248852,0.000229,53.2158,133.756,21.7638,113.115,-0.00075538,-0.0010555,0.0,0 STARLINK-4078,1 52689U 22053AK  22171.58334491 -.00105550  00000-0 -75538-3 0  9991,2 52689  53.2158 133.7560 0002290  21.7638 113.1150 15.73248852  1302,6727.755999999999,91.53,351.162,348.08,0.0
52689.0,STARLINK-4078,PAYLOAD,2022-06-20 22:00:00,15.73202195,0.0002149,53.2159,132.1058,26.0858,197.725,-0.00038035,-0.00053672,0.0,0 STARLINK-4078,1 52689U 22053AK  22171.91667824 -.00053672  00000-0 -38035-3 0  9995,2 52689  53.2159 132.1058 0002149  26.0858 197.7250 15.73202195  5597,6727.889,91.533,351.2,348.30800000000005,0.0
52689.0,STARLINK-4078,PAYLOAD,2022-06-21 06:00:00,15.73145125,0.0002467,53.2154,130.4585,27.3774,285.3565,0.00051391,0.0007196,0.0,0 STARLINK-4078,1 52689U 22053AK  22172.25001157  .00071960  00000-0  51391-3 0  9992,2 52689  53.2154 130.4585 0002467  27.3774 285.3565 15.73145125  5640,6728.052,91.536,351.576,348.25699999999995,0.0
52689.0,STARLINK-4078,PAYLOAD,2022-06-21 14:00:01,15.73207646,0.0002274,53.215,128.8074,28.9174,12.7089,0.00018534,0.00025479,0.0,0 STARLINK-4078,1 52689U 22053AK  22172.58334491  .00025479  00000-0  18534-3 0  9994,2 52689  53.2150 128.8074 0002274  28.9174  12.7089 15.73207646  1306,6727.873000000001,91.533,351.26800000000014,348.208,0.0
52689.0,STARLINK-4078,PAYLOAD,2022-06-21 22:00:00,15.73244119,0.0002237,53.2153,127.1573,34.4294,96.1273,-0.0004058,-0.00057301,0.0,0 STARLINK-4078,1 52689U 22053AK  22172.91667824 -.00057301  00000-0 -40580-3 0  9997,2 52689  53.2153 127.1573 0002237  34.4294  96.1273 15.73244119  5748,6727.769,91.531,351.139,348.129,0.0
52689.0,STARLINK-4078,PAYLOAD,2022-06-22 14:00:01,15.73178703,0.0002243,53.2154,123.8586,29.9872,278.42,0.00021269,0.00029308,0.0,0 STARLINK-4078,1 52689U 22053AK  22173.58334491  .00029308  00000-0  21269-3 0  9999,2 52689  53.2154 123.8586 0002243  29.9872 278.4200 15.73178703  1302,6727.956,91.534,351.33,348.31199999999984,0.0
52689.0,STARLINK-4078,PAYLOAD,2022-06-22 22:00:00,15.73237154,0.0002164,53.2153,122.2089,31.6623,5.6554,2.736800000000001e-05,3.227e-05,0.0,0 STARLINK-4078,1 52689U 22053AK  22173.91667824  .00003227  00000-0  27368-4 0  9994,2 52689  53.2153 122.2089 0002164  31.6623   5.6554 15.73237154  5906,6727.7890000000025,91.531,351.11,348.1980000000001,0.0
52689.0,STARLINK-4078,PAYLOAD,2022-06-23 14:00:01,15.73224684,0.0002147,53.2147,118.9099,29.5923,185.6422,-0.00040904,-0.00057702,0.0,0 STARLINK-4078,1 52689U 22053AK  22174.58334491 -.00057702  00000-0 -40904-3 0  9998,2 52689  53.2147 118.9099 0002147  29.5923 185.6422 15.73224684  6012,6727.825,91.532,351.134,348.245,0.0
52689.0,STARLINK-4078,PAYLOAD,2022-06-23 22:00:00,15.73210897,0.0002017,53.215,117.2601,32.7008,271.4566,-0.00041389,-0.00058339,0.0,0 STARLINK-4078,1 52689U 22053AK  22174.91667824 -.00058339  00000-0 -41389-3 0  9999,2 52689  53.2150 117.2601 0002017  32.7008 271.4566 15.73210897  1304,6727.864000000001,91.533,351.086,348.372,0.0
52689.0,STARLINK-4078,PAYLOAD,2022-06-24 14:00:01,15.73180744,0.0002046,53.2153,113.9613,27.868,94.0738,0.00028799,0.00039958,0.0,0 STARLINK-4078,1 52689U 22053AK  22175.58334491  .00039958  00000-0  28799-3 0  9998,2 52689  53.2153 113.9613 0002046  27.8680  94.0738 15.73180744  6162,6727.95,91.534,351.19199999999995,348.439,0.0
52689.0,STARLINK-4078,PAYLOAD,2022-06-24 22:00:01,15.73222604,0.0002049,53.2153,112.3119,31.3992,179.5181,0.00012746,0.00017322,0.0,0 STARLINK-4078,1 52689U 22053AK  22175.91668981  .00017322  00000-0  12746-3 0  9995,2 52689  53.2153 112.3119 0002049  31.3992 179.5181 15.73222604  1309,6727.831,91.532,351.074,348.31699999999995,0.0
52689.0,STARLINK-4078,PAYLOAD,2022-06-25 14:00:01,15.73195527,0.0001856,53.2149,109.0125,25.6312,3.1707,0.00032727,0.00045552,0.0,0 STARLINK-4078,1 52689U 22053AK  22176.58334491  .00045552  00000-0  32727-3 0  9992,2 52689  53.2149 109.0125 0001856  25.6312   3.1707 15.73195527  6327,6727.908,91.533,351.022,348.524,0.0
52689.0,STARLINK-4078,PAYLOAD,2022-06-25 22:00:00,15.73254106,0.0001847,53.2152,107.3632,26.9309,90.8097,7.2198e-05,9.547e-05,0.0,0 STARLINK-4078,1 52689U 22053AK  22176.91667824  .00009547  00000-0  72198-4 0  9999,2 52689  53.2152 107.3632 0001847  26.9309  90.8097 15.73254106  1302,6727.741,91.53,350.849,348.36300000000006,0.0
52689.0,STARLINK-4078,PAYLOAD,2022-06-26 14:00:01,15.73202504,0.0001919,53.2157,104.0638,28.7252,267.0555,0.00021169,0.00029196,0.0,0 STARLINK-4078,1 52689U 22053AK  22177.58335648  .00029196  00000-0  21169-3 0  9992,2 52689  53.2157 104.0638 0001919  28.7252 267.0555 15.73202504  6480,6727.888000000001,91.533,351.0440000000001,348.462,0.0
52689.0,STARLINK-4078,PAYLOAD,2022-06-26 22:00:00,15.73245608,0.0001967,53.2157,102.4148,31.7167,352.9457,-0.00057734,-0.00081035,0.0,0 STARLINK-4078,1 52689U 22053AK  22177.91667824 -.00081035  00000-0 -57734-3 0  9992,2 52689  53.2157 102.4148 0001967  31.7167 352.9457 15.73245608  1303,6727.765,91.531,350.95300000000015,348.307,0.0
52689.0,STARLINK-4078,PAYLOAD,2022-06-27 04:00:00,15.731508300000002,0.0002128,53.2155,101.1792,29.9588,331.3941,0.00011456,0.00015454,0.0,0 STARLINK-4078,1 52689U 22053AK  22178.16667824  .00015454  00000-0  11456-3 0  9991,2 52689  53.2155 101.1792 0002128  29.9588 331.3941 15.73150830  6573,6728.035,91.536,351.332,348.469,0.0
52689.0,STARLINK-4078,PAYLOAD,2022-06-27 14:00:01,15.73151138,0.0001825,53.2153,99.1155,28.8158,173.6365,0.00050089,0.00070119,0.0,0 STARLINK-4078,1 52689U 22053AK  22178.58334491  .00070119  00000-0  50089-3 0  9992,2 52689  53.2153  99.1155 0001825  28.8158 173.6365 15.73151138  1309,6728.034000000002,91.536,351.12699999999984,348.672,0.0
52689.0,STARLINK-4078,PAYLOAD,2022-06-27 22:00:00,15.73242008,0.0001789,53.2156,97.4668,28.3907,262.9486,-0.00055644,-0.00078136,0.0,0 STARLINK-4078,1 52689U 22053AK  22178.91667824 -.00078136  00000-0 -55644-3 0  9999,2 52689  53.2156  97.4668 0001789  28.3907 262.9486 15.73242008  1301,6727.775,91.531,350.844,348.43699999999984,0.0
52689.0,STARLINK-4078,PAYLOAD,2022-06-28 06:00:00,15.73141998,0.0001969,53.2155,95.8188,20.5891,359.6934,0.00056404,0.00079093,0.0,0 STARLINK-4078,1 52689U 22053AK  22179.25001157  .00079093  00000-0  56404-3 0  9994,2 52689  53.2155  95.8188 0001969  20.5891 359.6934 15.73141998  6746,6728.061,91.537,351.25,348.601,0.0
52689.0,STARLINK-4078,PAYLOAD,2022-06-28 14:00:01,15.73157958,0.0001739,53.2159,94.1674,23.1329,86.0349,0.0004807,0.00067264,0.0,0 STARLINK-4078,1 52689U 22053AK  22179.58334491  .00067264  00000-0  48070-3 0  9997,2 52689  53.2159  94.1674 0001739  23.1329  86.0349 15.73157958  6791,6728.015,91.536,351.05,348.71,0.0
